<?xml version="1.0" encoding="UTF-8"?>
<kml xmlns="http://www.opengis.net/kml/2.2"><Document><name>Project Crucible — AZ Fire Incidents</name><Folder><name>Fire Incidents — Arizona</name><Placemark><name>Wildfire - Phoenix - 2026-05-01</name><description><![CDATA[
<h3>Fire Risk Report &mdash; Phoenix</h3>
<p><b>Incident:</b> Wildfire | <b>Date:</b> 2026-05-01</p>
<hr/>
<h4>Bow Tie Analysis</h4>
<p>Preventative Controls: HIGH</p>
<p>Reactive Controls: HIGH</p>
<p><small>Smoke Detector: HIGH | Fire Alarm: NONE | Building Codes: HIGH</small></p>
<hr/>
<h4>Failure Mode Analysis (Top 3)</h4>
<ul>
<li>Weather-accelerated spread: RPN=240 (S=8 × O=5 × D=6)</li>
<li>Electrical ignition source: RPN=160 (S=8 × O=4 × D=5)</li>
<li>Delayed emergency response: RPN=147 (S=7 × O=7 × D=3)</li>
</ul>
<hr/>
<h4>Investment Decision (Simulated)</h4>
<p><em>SIMULATED — for demonstration purposes</em></p>
<p>Recommendation: <b>DO NOT INVEST</b></p>
<p>Expected Annual Savings: $-10,313</p>
<p><small>Investment: $75,000 | P(fire) without: 20.0% | P(fire) with: 9.0%</small></p>
<hr/>
<h4>Risk Classification</h4>
<p>Current State: <b>MODERATE</b> (score: 7/16)</p>
<p><small>Factors: Slow response time (16.8 min); High property loss ($775,572)</small></p>
<hr/>
<p><small><em>Generated by Project Crucible | ISO 31010 Risk Assessment</em></small></p>
]]></description><Point><coordinates>-112.116226,33.424634,0</coordinates></Point></Placemark><Placemark><name>Vehicle Fire - Gilbert - 2026-02-21</name><description><![CDATA[
<h3>Fire Risk Report &mdash; Gilbert</h3>
<p><b>Incident:</b> Vehicle Fire | <b>Date:</b> 2026-02-21</p>
<hr/>
<h4>Bow Tie Analysis</h4>
<p>Preventative Controls: HIGH</p>
<p>Reactive Controls: HIGH</p>
<p><small>Smoke Detector: LOW | Fire Alarm: HIGH | Building Codes: HIGH</small></p>
<hr/>
<h4>Failure Mode Analysis (Top 3)</h4>
<ul>
<li>Electrical ignition source: RPN=280 (S=8 × O=7 × D=5)</li>
<li>Fire detection failure: RPN=240 (S=8 × O=6 × D=5)</li>
<li>Weather-accelerated spread: RPN=240 (S=8 × O=5 × D=6)</li>
</ul>
<hr/>
<h4>Investment Decision (Simulated)</h4>
<p><em>SIMULATED — for demonstration purposes</em></p>
<p>Recommendation: <b>INVEST</b></p>
<p>Expected Annual Savings: $24,541</p>
<p><small>Investment: $30,000 | P(fire) without: 15.0% | P(fire) with: 6.7%</small></p>
<hr/>
<h4>Risk Classification</h4>
<p>Current State: <b>MODERATE</b> (score: 6/16)</p>
<p><small>Factors: Smoke alarm present but did not operate; Hot/dry conditions</small></p>
<hr/>
<p><small><em>Generated by Project Crucible | ISO 31010 Risk Assessment</em></small></p>
]]></description><Point><coordinates>-111.781383,33.387292,0</coordinates></Point></Placemark><Placemark><name>Structure Fire - Surprise - 2026-05-09</name><description><![CDATA[
<h3>Fire Risk Report &mdash; Surprise</h3>
<p><b>Incident:</b> Structure Fire | <b>Date:</b> 2026-05-09</p>
<hr/>
<h4>Bow Tie Analysis</h4>
<p>Preventative Controls: LOW</p>
<p>Reactive Controls: MODERATE</p>
<p><small>Smoke Detector: NONE | Fire Alarm: NONE | Building Codes: MODERATE</small></p>
<hr/>
<h4>Failure Mode Analysis (Top 3)</h4>
<ul>
<li>Fire detection failure: RPN=280 (S=8 × O=7 × D=5)</li>
<li>Suppression system failure: RPN=216 (S=9 × O=6 × D=4)</li>
<li>Electrical ignition source: RPN=160 (S=8 × O=4 × D=5)</li>
</ul>
<hr/>
<h4>Investment Decision (Simulated)</h4>
<p><em>SIMULATED — for demonstration purposes</em></p>
<p>Recommendation: <b>INVEST</b></p>
<p>Expected Annual Savings: $15,654</p>
<p><small>Investment: $50,000 | P(fire) without: 25.0% | P(fire) with: 11.2%</small></p>
<hr/>
<h4>Risk Classification</h4>
<p>Current State: <b>MODERATE</b> (score: 9/16)</p>
<p><small>Factors: Slow response time (10.2 min); No suppression system present; No smoke alarm present; Moderate property loss ($249,786)</small></p>
<hr/>
<p><small><em>Generated by Project Crucible | ISO 31010 Risk Assessment</em></small></p>
]]></description><Point><coordinates>-112.344535,33.676987,0</coordinates></Point></Placemark><Placemark><name>Cooking Fire - Gilbert - 2026-03-06</name><description><![CDATA[
<h3>Fire Risk Report &mdash; Gilbert</h3>
<p><b>Incident:</b> Cooking Fire | <b>Date:</b> 2026-03-06</p>
<hr/>
<h4>Bow Tie Analysis</h4>
<p>Preventative Controls: MODERATE</p>
<p>Reactive Controls: MODERATE</p>
<p><small>Smoke Detector: NONE | Fire Alarm: LOW | Building Codes: MODERATE</small></p>
<hr/>
<h4>Failure Mode Analysis (Top 3)</h4>
<ul>
<li>Fire detection failure: RPN=280 (S=8 × O=7 × D=5)</li>
<li>Weather-accelerated spread: RPN=240 (S=8 × O=5 × D=6)</li>
<li>Suppression system failure: RPN=216 (S=9 × O=6 × D=4)</li>
</ul>
<hr/>
<h4>Investment Decision (Simulated)</h4>
<p><em>SIMULATED — for demonstration purposes</em></p>
<p>Recommendation: <b>INVEST</b></p>
<p>Expected Annual Savings: $24,836</p>
<p><small>Investment: $30,000 | P(fire) without: 17.0% | P(fire) with: 7.6%</small></p>
<hr/>
<h4>Risk Classification</h4>
<p>Current State: <b>HIGH</b> (score: 11/16)</p>
<p><small>Factors: No suppression system present; No smoke alarm present; Fire spread beyond building; Extreme fire weather conditions</small></p>
<hr/>
<p><small><em>Generated by Project Crucible | ISO 31010 Risk Assessment</em></small></p>
]]></description><Point><coordinates>-111.822955,33.398893,0</coordinates></Point></Placemark><Placemark><name>Structure Fire - Sierra Vista - 2026-04-04</name><description><![CDATA[
<h3>Fire Risk Report &mdash; Sierra Vista</h3>
<p><b>Incident:</b> Structure Fire | <b>Date:</b> 2026-04-04</p>
<hr/>
<h4>Bow Tie Analysis</h4>
<p>Preventative Controls: MODERATE</p>
<p>Reactive Controls: HIGH</p>
<p><small>Smoke Detector: LOW | Fire Alarm: NONE | Building Codes: HIGH</small></p>
<hr/>
<h4>Failure Mode Analysis (Top 3)</h4>
<ul>
<li>Electrical ignition source: RPN=280 (S=8 × O=7 × D=5)</li>
<li>Fire detection failure: RPN=240 (S=8 × O=6 × D=5)</li>
<li>Weather-accelerated spread: RPN=240 (S=8 × O=5 × D=6)</li>
</ul>
<hr/>
<h4>Investment Decision (Simulated)</h4>
<p><em>SIMULATED — for demonstration purposes</em></p>
<p>Recommendation: <b>INVEST</b></p>
<p>Expected Annual Savings: $32,847</p>
<p><small>Investment: $50,000 | P(fire) without: 12.0% | P(fire) with: 5.4%</small></p>
<hr/>
<h4>Risk Classification</h4>
<p>Current State: <b>LOW</b> (score: 5/16)</p>
<p><small>Factors: Smoke alarm present but did not operate; Moderate property loss ($259,899)</small></p>
<hr/>
<p><small><em>Generated by Project Crucible | ISO 31010 Risk Assessment</em></small></p>
]]></description><Point><coordinates>-110.329762,31.533654,0</coordinates></Point></Placemark><Placemark><name>Vehicle Fire - Tucson - 2026-03-27</name><description><![CDATA[
<h3>Fire Risk Report &mdash; Tucson</h3>
<p><b>Incident:</b> Vehicle Fire | <b>Date:</b> 2026-03-27</p>
<hr/>
<h4>Bow Tie Analysis</h4>
<p>Preventative Controls: LOW</p>
<p>Reactive Controls: MODERATE</p>
<p><small>Smoke Detector: NONE | Fire Alarm: LOW | Building Codes: UNDETERMINED</small></p>
<hr/>
<h4>Failure Mode Analysis (Top 3)</h4>
<ul>
<li>Fire detection failure: RPN=280 (S=8 × O=7 × D=5)</li>
<li>Weather-accelerated spread: RPN=240 (S=8 × O=5 × D=6)</li>
<li>Suppression system failure: RPN=180 (S=9 × O=5 × D=4)</li>
</ul>
<hr/>
<h4>Investment Decision (Simulated)</h4>
<p><em>SIMULATED — for demonstration purposes</em></p>
<p>Recommendation: <b>INVEST</b></p>
<p>Expected Annual Savings: $24,365</p>
<p><small>Investment: $30,000 | P(fire) without: 20.0% | P(fire) with: 9.0%</small></p>
<hr/>
<h4>Risk Classification</h4>
<p>Current State: <b>MODERATE</b> (score: 8/16)</p>
<p><small>Factors: Slow response time (14.1 min); No smoke alarm present</small></p>
<hr/>
<p><small><em>Generated by Project Crucible | ISO 31010 Risk Assessment</em></small></p>
]]></description><Point><coordinates>-110.932271,32.181706,0</coordinates></Point></Placemark><Placemark><name>Vehicle Fire - Surprise - 2026-04-11</name><description><![CDATA[
<h3>Fire Risk Report &mdash; Surprise</h3>
<p><b>Incident:</b> Vehicle Fire | <b>Date:</b> 2026-04-11</p>
<hr/>
<h4>Bow Tie Analysis</h4>
<p>Preventative Controls: MODERATE</p>
<p>Reactive Controls: MODERATE</p>
<p><small>Smoke Detector: NONE | Fire Alarm: HIGH | Building Codes: UNDETERMINED</small></p>
<hr/>
<h4>Failure Mode Analysis (Top 3)</h4>
<ul>
<li>Fire detection failure: RPN=280 (S=8 × O=7 × D=5)</li>
<li>Weather-accelerated spread: RPN=240 (S=8 × O=5 × D=6)</li>
<li>Suppression system failure: RPN=180 (S=9 × O=5 × D=4)</li>
</ul>
<hr/>
<h4>Investment Decision (Simulated)</h4>
<p><em>SIMULATED — for demonstration purposes</em></p>
<p>Recommendation: <b>INVEST</b></p>
<p>Expected Annual Savings: $24,799</p>
<p><small>Investment: $30,000 | P(fire) without: 15.0% | P(fire) with: 6.7%</small></p>
<hr/>
<h4>Risk Classification</h4>
<p>Current State: <b>MODERATE</b> (score: 8/16)</p>
<p><small>Factors: No smoke alarm present; Fire spread beyond building</small></p>
<hr/>
<p><small><em>Generated by Project Crucible | ISO 31010 Risk Assessment</em></small></p>
]]></description><Point><coordinates>-112.400702,33.668677,0</coordinates></Point></Placemark><Placemark><name>Vehicle Fire - Phoenix - Ahwatukee - 2026-04-12</name><description><![CDATA[
<h3>Fire Risk Report &mdash; Phoenix - Ahwatukee</h3>
<p><b>Incident:</b> Vehicle Fire | <b>Date:</b> 2026-04-12</p>
<hr/>
<h4>Bow Tie Analysis</h4>
<p>Preventative Controls: LOW</p>
<p>Reactive Controls: MODERATE</p>
<p><small>Smoke Detector: NONE | Fire Alarm: NONE | Building Codes: UNDETERMINED</small></p>
<hr/>
<h4>Failure Mode Analysis (Top 3)</h4>
<ul>
<li>Fire detection failure: RPN=280 (S=8 × O=7 × D=5)</li>
<li>Suppression system failure: RPN=180 (S=9 × O=5 × D=4)</li>
<li>Electrical ignition source: RPN=160 (S=8 × O=4 × D=5)</li>
</ul>
<hr/>
<h4>Investment Decision (Simulated)</h4>
<p><em>SIMULATED — for demonstration purposes</em></p>
<p>Recommendation: <b>INVEST</b></p>
<p>Expected Annual Savings: $29,155</p>
<p><small>Investment: $30,000 | P(fire) without: 20.0% | P(fire) with: 9.0%</small></p>
<hr/>
<h4>Risk Classification</h4>
<p>Current State: <b>MODERATE</b> (score: 9/16)</p>
<p><small>Factors: Slow response time (12.9 min); No smoke alarm present</small></p>
<hr/>
<p><small><em>Generated by Project Crucible | ISO 31010 Risk Assessment</em></small></p>
]]></description><Point><coordinates>-111.978933,33.352373,0</coordinates></Point></Placemark><Placemark><name>Wildfire - Yuma - 2026-03-20</name><description><![CDATA[
<h3>Fire Risk Report &mdash; Yuma</h3>
<p><b>Incident:</b> Wildfire | <b>Date:</b> 2026-03-20</p>
<hr/>
<h4>Bow Tie Analysis</h4>
<p>Preventative Controls: HIGH</p>
<p>Reactive Controls: HIGH</p>
<p><small>Smoke Detector: HIGH | Fire Alarm: HIGH | Building Codes: HIGH</small></p>
<hr/>
<h4>Failure Mode Analysis (Top 3)</h4>
<ul>
<li>Electrical ignition source: RPN=280 (S=8 × O=7 × D=5)</li>
<li>Weather-accelerated spread: RPN=240 (S=8 × O=5 × D=6)</li>
<li>Delayed emergency response: RPN=147 (S=7 × O=7 × D=3)</li>
</ul>
<hr/>
<h4>Investment Decision (Simulated)</h4>
<p><em>SIMULATED — for demonstration purposes</em></p>
<p>Recommendation: <b>DO NOT INVEST</b></p>
<p>Expected Annual Savings: $-72,915</p>
<p><small>Investment: $75,000 | P(fire) without: 20.0% | P(fire) with: 9.0%</small></p>
<hr/>
<h4>Risk Classification</h4>
<p>Current State: <b>MODERATE</b> (score: 8/16)</p>
<p><small>Factors: Slow response time (16.8 min); High property loss ($1,344,686)</small></p>
<hr/>
<p><small><em>Generated by Project Crucible | ISO 31010 Risk Assessment</em></small></p>
]]></description><Point><coordinates>-114.629431,32.659784,0</coordinates></Point></Placemark><Placemark><name>Wildfire - Phoenix - South Mountain - 2026-04-04</name><description><![CDATA[
<h3>Fire Risk Report &mdash; Phoenix - South Mountain</h3>
<p><b>Incident:</b> Wildfire | <b>Date:</b> 2026-04-04</p>
<hr/>
<h4>Bow Tie Analysis</h4>
<p>Preventative Controls: MODERATE</p>
<p>Reactive Controls: HIGH</p>
<p><small>Smoke Detector: NONE | Fire Alarm: NONE | Building Codes: HIGH</small></p>
<hr/>
<h4>Failure Mode Analysis (Top 3)</h4>
<ul>
<li>Fire detection failure: RPN=280 (S=8 × O=7 × D=5)</li>
<li>Weather-accelerated spread: RPN=240 (S=8 × O=5 × D=6)</li>
<li>Electrical ignition source: RPN=160 (S=8 × O=4 × D=5)</li>
</ul>
<hr/>
<h4>Investment Decision (Simulated)</h4>
<p><em>SIMULATED — for demonstration purposes</em></p>
<p>Recommendation: <b>INVEST</b></p>
<p>Expected Annual Savings: $5,016</p>
<p><small>Investment: $75,000 | P(fire) without: 15.0% | P(fire) with: 6.7%</small></p>
<hr/>
<h4>Risk Classification</h4>
<p>Current State: <b>MODERATE</b> (score: 7/16)</p>
<p><small>Factors: Moderate response time (10.0 min); No smoke alarm present; High property loss ($848,294)</small></p>
<hr/>
<p><small><em>Generated by Project Crucible | ISO 31010 Risk Assessment</em></small></p>
]]></description><Point><coordinates>-112.037136,33.38235,0</coordinates></Point></Placemark><Placemark><name>Electrical Fire - Kingman - 2026-05-12</name><description><![CDATA[
<h3>Fire Risk Report &mdash; Kingman</h3>
<p><b>Incident:</b> Electrical Fire | <b>Date:</b> 2026-05-12</p>
<hr/>
<h4>Bow Tie Analysis</h4>
<p>Preventative Controls: MODERATE</p>
<p>Reactive Controls: MODERATE</p>
<p><small>Smoke Detector: NONE | Fire Alarm: HIGH | Building Codes: MODERATE</small></p>
<hr/>
<h4>Failure Mode Analysis (Top 3)</h4>
<ul>
<li>Fire detection failure: RPN=280 (S=8 × O=7 × D=5)</li>
<li>Weather-accelerated spread: RPN=240 (S=8 × O=5 × D=6)</li>
<li>Suppression system failure: RPN=216 (S=9 × O=6 × D=4)</li>
</ul>
<hr/>
<h4>Investment Decision (Simulated)</h4>
<p><em>SIMULATED — for demonstration purposes</em></p>
<p>Recommendation: <b>INVEST</b></p>
<p>Expected Annual Savings: $43,705</p>
<p><small>Investment: $50,000 | P(fire) without: 25.0% | P(fire) with: 11.2%</small></p>
<hr/>
<h4>Risk Classification</h4>
<p>Current State: <b>MODERATE</b> (score: 8/16)</p>
<p><small>Factors: Slow response time (13.4 min); No suppression system present; No smoke alarm present</small></p>
<hr/>
<p><small><em>Generated by Project Crucible | ISO 31010 Risk Assessment</em></small></p>
]]></description><Point><coordinates>-114.06789,35.228963,0</coordinates></Point></Placemark><Placemark><name>Vehicle Fire - Kingman - 2026-02-24</name><description><![CDATA[
<h3>Fire Risk Report &mdash; Kingman</h3>
<p><b>Incident:</b> Vehicle Fire | <b>Date:</b> 2026-02-24</p>
<hr/>
<h4>Bow Tie Analysis</h4>
<p>Preventative Controls: HIGH</p>
<p>Reactive Controls: LOW</p>
<p><small>Smoke Detector: HIGH | Fire Alarm: HIGH | Building Codes: UNDETERMINED</small></p>
<hr/>
<h4>Failure Mode Analysis (Top 3)</h4>
<ul>
<li>Suppression system failure: RPN=180 (S=9 × O=5 × D=4)</li>
<li>Electrical ignition source: RPN=160 (S=8 × O=4 × D=5)</li>
<li>Delayed emergency response: RPN=147 (S=7 × O=7 × D=3)</li>
</ul>
<hr/>
<h4>Investment Decision (Simulated)</h4>
<p><em>SIMULATED — for demonstration purposes</em></p>
<p>Recommendation: <b>INVEST</b></p>
<p>Expected Annual Savings: $27,210</p>
<p><small>Investment: $30,000 | P(fire) without: 20.0% | P(fire) with: 9.0%</small></p>
<hr/>
<h4>Risk Classification</h4>
<p>Current State: <b>MODERATE</b> (score: 8/16)</p>
<p><small>Factors: Slow response time (15.5 min); Fire spread beyond building</small></p>
<hr/>
<p><small><em>Generated by Project Crucible | ISO 31010 Risk Assessment</em></small></p>
]]></description><Point><coordinates>-114.080408,35.141768,0</coordinates></Point></Placemark><Placemark><name>Vehicle Fire - Tucson - Catalina Foothills - 2026-04-14</name><description><![CDATA[
<h3>Fire Risk Report &mdash; Tucson - Catalina Foothills</h3>
<p><b>Incident:</b> Vehicle Fire | <b>Date:</b> 2026-04-14</p>
<hr/>
<h4>Bow Tie Analysis</h4>
<p>Preventative Controls: MODERATE</p>
<p>Reactive Controls: MODERATE</p>
<p><small>Smoke Detector: HIGH | Fire Alarm: NONE | Building Codes: UNDETERMINED</small></p>
<hr/>
<h4>Failure Mode Analysis (Top 3)</h4>
<ul>
<li>Weather-accelerated spread: RPN=240 (S=8 × O=5 × D=6)</li>
<li>Suppression system failure: RPN=180 (S=9 × O=5 × D=4)</li>
<li>Electrical ignition source: RPN=160 (S=8 × O=4 × D=5)</li>
</ul>
<hr/>
<h4>Investment Decision (Simulated)</h4>
<p><em>SIMULATED — for demonstration purposes</em></p>
<p>Recommendation: <b>INVEST</b></p>
<p>Expected Annual Savings: $28,488</p>
<p><small>Investment: $30,000 | P(fire) without: 15.0% | P(fire) with: 6.7%</small></p>
<hr/>
<h4>Risk Classification</h4>
<p>Current State: <b>LOW</b> (score: 5/16)</p>
<p><small>Factors: Moderate response time (9.4 min)</small></p>
<hr/>
<p><small><em>Generated by Project Crucible | ISO 31010 Risk Assessment</em></small></p>
]]></description><Point><coordinates>-110.950126,32.353629,0</coordinates></Point></Placemark><Placemark><name>Structure Fire - Sierra Vista - 2026-03-17</name><description><![CDATA[
<h3>Fire Risk Report &mdash; Sierra Vista</h3>
<p><b>Incident:</b> Structure Fire | <b>Date:</b> 2026-03-17</p>
<hr/>
<h4>Bow Tie Analysis</h4>
<p>Preventative Controls: MODERATE</p>
<p>Reactive Controls: MODERATE</p>
<p><small>Smoke Detector: LOW | Fire Alarm: LOW | Building Codes: MODERATE</small></p>
<hr/>
<h4>Failure Mode Analysis (Top 3)</h4>
<ul>
<li>Fire detection failure: RPN=240 (S=8 × O=6 × D=5)</li>
<li>Suppression system failure: RPN=216 (S=9 × O=6 × D=4)</li>
<li>Electrical ignition source: RPN=160 (S=8 × O=4 × D=5)</li>
</ul>
<hr/>
<h4>Investment Decision (Simulated)</h4>
<p><em>SIMULATED — for demonstration purposes</em></p>
<p>Recommendation: <b>INVEST</b></p>
<p>Expected Annual Savings: $1,327</p>
<p><small>Investment: $50,000 | P(fire) without: 25.0% | P(fire) with: 11.2%</small></p>
<hr/>
<h4>Risk Classification</h4>
<p>Current State: <b>HIGH</b> (score: 11/16)</p>
<p><small>Factors: Slow response time (10.2 min); No suppression system present; Smoke alarm present but did not operate; Moderate property loss ($353,984)</small></p>
<hr/>
<p><small><em>Generated by Project Crucible | ISO 31010 Risk Assessment</em></small></p>
]]></description><Point><coordinates>-110.258692,31.582252,0</coordinates></Point></Placemark><Placemark><name>Cooking Fire - Prescott - 2026-04-12</name><description><![CDATA[
<h3>Fire Risk Report &mdash; Prescott</h3>
<p><b>Incident:</b> Cooking Fire | <b>Date:</b> 2026-04-12</p>
<hr/>
<h4>Bow Tie Analysis</h4>
<p>Preventative Controls: HIGH</p>
<p>Reactive Controls: MODERATE</p>
<p><small>Smoke Detector: LOW | Fire Alarm: HIGH | Building Codes: MODERATE</small></p>
<hr/>
<h4>Failure Mode Analysis (Top 3)</h4>
<ul>
<li>Fire detection failure: RPN=240 (S=8 × O=6 × D=5)</li>
<li>Suppression system failure: RPN=216 (S=9 × O=6 × D=4)</li>
<li>Electrical ignition source: RPN=160 (S=8 × O=4 × D=5)</li>
</ul>
<hr/>
<h4>Investment Decision (Simulated)</h4>
<p><em>SIMULATED — for demonstration purposes</em></p>
<p>Recommendation: <b>INVEST</b></p>
<p>Expected Annual Savings: $23,298</p>
<p><small>Investment: $30,000 | P(fire) without: 20.0% | P(fire) with: 9.0%</small></p>
<hr/>
<h4>Risk Classification</h4>
<p>Current State: <b>MODERATE</b> (score: 7/16)</p>
<p><small>Factors: Moderate response time (9.1 min); No suppression system present; Smoke alarm present but did not operate</small></p>
<hr/>
<p><small><em>Generated by Project Crucible | ISO 31010 Risk Assessment</em></small></p>
]]></description><Point><coordinates>-112.501403,34.563513,0</coordinates></Point></Placemark><Placemark><name>Vehicle Fire - Tempe - 2026-02-18</name><description><![CDATA[
<h3>Fire Risk Report &mdash; Tempe</h3>
<p><b>Incident:</b> Vehicle Fire | <b>Date:</b> 2026-02-18</p>
<hr/>
<h4>Bow Tie Analysis</h4>
<p>Preventative Controls: LOW</p>
<p>Reactive Controls: MODERATE</p>
<p><small>Smoke Detector: NONE | Fire Alarm: NONE | Building Codes: UNDETERMINED</small></p>
<hr/>
<h4>Failure Mode Analysis (Top 3)</h4>
<ul>
<li>Fire detection failure: RPN=280 (S=8 × O=7 × D=5)</li>
<li>Electrical ignition source: RPN=280 (S=8 × O=7 × D=5)</li>
<li>Weather-accelerated spread: RPN=240 (S=8 × O=5 × D=6)</li>
</ul>
<hr/>
<h4>Investment Decision (Simulated)</h4>
<p><em>SIMULATED — for demonstration purposes</em></p>
<p>Recommendation: <b>INVEST</b></p>
<p>Expected Annual Savings: $24,962</p>
<p><small>Investment: $30,000 | P(fire) without: 15.0% | P(fire) with: 6.7%</small></p>
<hr/>
<h4>Risk Classification</h4>
<p>Current State: <b>MODERATE</b> (score: 8/16)</p>
<p><small>Factors: Moderate response time (7.3 min); No smoke alarm present</small></p>
<hr/>
<p><small><em>Generated by Project Crucible | ISO 31010 Risk Assessment</em></small></p>
]]></description><Point><coordinates>-111.962586,33.420902,0</coordinates></Point></Placemark><Placemark><name>Vehicle Fire - Lake Havasu City - 2026-04-19</name><description><![CDATA[
<h3>Fire Risk Report &mdash; Lake Havasu City</h3>
<p><b>Incident:</b> Vehicle Fire | <b>Date:</b> 2026-04-19</p>
<hr/>
<h4>Bow Tie Analysis</h4>
<p>Preventative Controls: MODERATE</p>
<p>Reactive Controls: MODERATE</p>
<p><small>Smoke Detector: NONE | Fire Alarm: LOW | Building Codes: HIGH</small></p>
<hr/>
<h4>Failure Mode Analysis (Top 3)</h4>
<ul>
<li>Fire detection failure: RPN=280 (S=8 × O=7 × D=5)</li>
<li>Electrical ignition source: RPN=280 (S=8 × O=7 × D=5)</li>
<li>Weather-accelerated spread: RPN=144 (S=8 × O=3 × D=6)</li>
</ul>
<hr/>
<h4>Investment Decision (Simulated)</h4>
<p><em>SIMULATED — for demonstration purposes</em></p>
<p>Recommendation: <b>INVEST</b></p>
<p>Expected Annual Savings: $22,492</p>
<p><small>Investment: $30,000 | P(fire) without: 20.0% | P(fire) with: 9.0%</small></p>
<hr/>
<h4>Risk Classification</h4>
<p>Current State: <b>MODERATE</b> (score: 9/16)</p>
<p><small>Factors: Slow response time (11.0 min); No smoke alarm present; Fire spread beyond building</small></p>
<hr/>
<p><small><em>Generated by Project Crucible | ISO 31010 Risk Assessment</em></small></p>
]]></description><Point><coordinates>-114.289457,34.515338,0</coordinates></Point></Placemark><Placemark><name>Vehicle Fire - Kingman - 2026-05-11</name><description><![CDATA[
<h3>Fire Risk Report &mdash; Kingman</h3>
<p><b>Incident:</b> Vehicle Fire | <b>Date:</b> 2026-05-11</p>
<hr/>
<h4>Bow Tie Analysis</h4>
<p>Preventative Controls: LOW</p>
<p>Reactive Controls: MODERATE</p>
<p><small>Smoke Detector: LOW | Fire Alarm: NONE | Building Codes: UNDETERMINED</small></p>
<hr/>
<h4>Failure Mode Analysis (Top 3)</h4>
<ul>
<li>Weather-accelerated spread: RPN=384 (S=8 × O=8 × D=6)</li>
<li>Fire detection failure: RPN=240 (S=8 × O=6 × D=5)</li>
<li>Suppression system failure: RPN=180 (S=9 × O=5 × D=4)</li>
</ul>
<hr/>
<h4>Investment Decision (Simulated)</h4>
<p><em>SIMULATED — for demonstration purposes</em></p>
<p>Recommendation: <b>INVEST</b></p>
<p>Expected Annual Savings: $23,362</p>
<p><small>Investment: $30,000 | P(fire) without: 20.0% | P(fire) with: 9.0%</small></p>
<hr/>
<h4>Risk Classification</h4>
<p>Current State: <b>HIGH</b> (score: 12/16)</p>
<p><small>Factors: Slow response time (12.5 min); Smoke alarm present but did not operate; Fire spread beyond building; Extreme fire weather conditions</small></p>
<hr/>
<p><small><em>Generated by Project Crucible | ISO 31010 Risk Assessment</em></small></p>
]]></description><Point><coordinates>-114.053357,35.198394,0</coordinates></Point></Placemark><Placemark><name>Wildfire - Scottsdale - 2026-03-20</name><description><![CDATA[
<h3>Fire Risk Report &mdash; Scottsdale</h3>
<p><b>Incident:</b> Wildfire | <b>Date:</b> 2026-03-20</p>
<hr/>
<h4>Bow Tie Analysis</h4>
<p>Preventative Controls: LOW</p>
<p>Reactive Controls: MODERATE</p>
<p><small>Smoke Detector: NONE | Fire Alarm: NONE | Building Codes: UNDETERMINED</small></p>
<hr/>
<h4>Failure Mode Analysis (Top 3)</h4>
<ul>
<li>Fire detection failure: RPN=280 (S=8 × O=7 × D=5)</li>
<li>Weather-accelerated spread: RPN=240 (S=8 × O=5 × D=6)</li>
<li>Suppression system failure: RPN=180 (S=9 × O=5 × D=4)</li>
</ul>
<hr/>
<h4>Investment Decision (Simulated)</h4>
<p><em>SIMULATED — for demonstration purposes</em></p>
<p>Recommendation: <b>INVEST</b></p>
<p>Expected Annual Savings: $17,784</p>
<p><small>Investment: $75,000 | P(fire) without: 12.0% | P(fire) with: 5.4%</small></p>
<hr/>
<h4>Risk Classification</h4>
<p>Current State: <b>MODERATE</b> (score: 7/16)</p>
<p><small>Factors: No smoke alarm present; High property loss ($866,905)</small></p>
<hr/>
<p><small><em>Generated by Project Crucible | ISO 31010 Risk Assessment</em></small></p>
]]></description><Point><coordinates>-111.954669,33.49022,0</coordinates></Point></Placemark><Placemark><name>Structure Fire - Prescott - 2026-03-03</name><description><![CDATA[
<h3>Fire Risk Report &mdash; Prescott</h3>
<p><b>Incident:</b> Structure Fire | <b>Date:</b> 2026-03-03</p>
<hr/>
<h4>Bow Tie Analysis</h4>
<p>Preventative Controls: MODERATE</p>
<p>Reactive Controls: MODERATE</p>
<p><small>Smoke Detector: HIGH | Fire Alarm: NONE | Building Codes: MODERATE</small></p>
<hr/>
<h4>Failure Mode Analysis (Top 3)</h4>
<ul>
<li>Weather-accelerated spread: RPN=240 (S=8 × O=5 × D=6)</li>
<li>Suppression system failure: RPN=216 (S=9 × O=6 × D=4)</li>
<li>Electrical ignition source: RPN=160 (S=8 × O=4 × D=5)</li>
</ul>
<hr/>
<h4>Investment Decision (Simulated)</h4>
<p><em>SIMULATED — for demonstration purposes</em></p>
<p>Recommendation: <b>INVEST</b></p>
<p>Expected Annual Savings: $6,550</p>
<p><small>Investment: $50,000 | P(fire) without: 20.0% | P(fire) with: 9.0%</small></p>
<hr/>
<h4>Risk Classification</h4>
<p>Current State: <b>HIGH</b> (score: 10/16)</p>
<p><small>Factors: Moderate response time (7.4 min); No suppression system present; Moderate property loss ($394,996); Fire spread beyond building; Hot/dry conditions</small></p>
<hr/>
<p><small><em>Generated by Project Crucible | ISO 31010 Risk Assessment</em></small></p>
]]></description><Point><coordinates>-112.452099,34.55025,0</coordinates></Point></Placemark><Placemark><name>Vehicle Fire - Lake Havasu City - 2026-03-06</name><description><![CDATA[
<h3>Fire Risk Report &mdash; Lake Havasu City</h3>
<p><b>Incident:</b> Vehicle Fire | <b>Date:</b> 2026-03-06</p>
<hr/>
<h4>Bow Tie Analysis</h4>
<p>Preventative Controls: MODERATE</p>
<p>Reactive Controls: MODERATE</p>
<p><small>Smoke Detector: LOW | Fire Alarm: HIGH | Building Codes: UNDETERMINED</small></p>
<hr/>
<h4>Failure Mode Analysis (Top 3)</h4>
<ul>
<li>Electrical ignition source: RPN=280 (S=8 × O=7 × D=5)</li>
<li>Fire detection failure: RPN=240 (S=8 × O=6 × D=5)</li>
<li>Weather-accelerated spread: RPN=240 (S=8 × O=5 × D=6)</li>
</ul>
<hr/>
<h4>Investment Decision (Simulated)</h4>
<p><em>SIMULATED — for demonstration purposes</em></p>
<p>Recommendation: <b>INVEST</b></p>
<p>Expected Annual Savings: $24,538</p>
<p><small>Investment: $30,000 | P(fire) without: 15.0% | P(fire) with: 6.7%</small></p>
<hr/>
<h4>Risk Classification</h4>
<p>Current State: <b>MODERATE</b> (score: 6/16)</p>
<p><small>Factors: Moderate response time (7.5 min); Smoke alarm present but did not operate</small></p>
<hr/>
<p><small><em>Generated by Project Crucible | ISO 31010 Risk Assessment</em></small></p>
]]></description><Point><coordinates>-114.348645,34.474386,0</coordinates></Point></Placemark><Placemark><name>Vehicle Fire - Phoenix - South Mountain - 2026-04-05</name><description><![CDATA[
<h3>Fire Risk Report &mdash; Phoenix - South Mountain</h3>
<p><b>Incident:</b> Vehicle Fire | <b>Date:</b> 2026-04-05</p>
<hr/>
<h4>Bow Tie Analysis</h4>
<p>Preventative Controls: MODERATE</p>
<p>Reactive Controls: HIGH</p>
<p><small>Smoke Detector: LOW | Fire Alarm: NONE | Building Codes: HIGH</small></p>
<hr/>
<h4>Failure Mode Analysis (Top 3)</h4>
<ul>
<li>Fire detection failure: RPN=240 (S=8 × O=6 × D=5)</li>
<li>Weather-accelerated spread: RPN=240 (S=8 × O=5 × D=6)</li>
<li>Electrical ignition source: RPN=160 (S=8 × O=4 × D=5)</li>
</ul>
<hr/>
<h4>Investment Decision (Simulated)</h4>
<p><em>SIMULATED — for demonstration purposes</em></p>
<p>Recommendation: <b>INVEST</b></p>
<p>Expected Annual Savings: $28,679</p>
<p><small>Investment: $30,000 | P(fire) without: 15.0% | P(fire) with: 6.7%</small></p>
<hr/>
<h4>Risk Classification</h4>
<p>Current State: <b>MODERATE</b> (score: 7/16)</p>
<p><small>Factors: Smoke alarm present but did not operate; Hot/dry conditions</small></p>
<hr/>
<p><small><em>Generated by Project Crucible | ISO 31010 Risk Assessment</em></small></p>
]]></description><Point><coordinates>-112.092285,33.3679,0</coordinates></Point></Placemark><Placemark><name>Vehicle Fire - Prescott - 2026-03-30</name><description><![CDATA[
<h3>Fire Risk Report &mdash; Prescott</h3>
<p><b>Incident:</b> Vehicle Fire | <b>Date:</b> 2026-03-30</p>
<hr/>
<h4>Bow Tie Analysis</h4>
<p>Preventative Controls: MODERATE</p>
<p>Reactive Controls: MODERATE</p>
<p><small>Smoke Detector: HIGH | Fire Alarm: LOW | Building Codes: UNDETERMINED</small></p>
<hr/>
<h4>Failure Mode Analysis (Top 3)</h4>
<ul>
<li>Suppression system failure: RPN=180 (S=9 × O=5 × D=4)</li>
<li>Electrical ignition source: RPN=160 (S=8 × O=4 × D=5)</li>
<li>Weather-accelerated spread: RPN=144 (S=8 × O=3 × D=6)</li>
</ul>
<hr/>
<h4>Investment Decision (Simulated)</h4>
<p><em>SIMULATED — for demonstration purposes</em></p>
<p>Recommendation: <b>INVEST</b></p>
<p>Expected Annual Savings: $24,592</p>
<p><small>Investment: $30,000 | P(fire) without: 15.0% | P(fire) with: 6.7%</small></p>
<hr/>
<h4>Risk Classification</h4>
<p>Current State: <b>LOW</b> (score: 3/16)</p>
<hr/>
<p><small><em>Generated by Project Crucible | ISO 31010 Risk Assessment</em></small></p>
]]></description><Point><coordinates>-112.424158,34.585589,0</coordinates></Point></Placemark><Placemark><name>Electrical Fire - Bullhead City - 2026-04-13</name><description><![CDATA[
<h3>Fire Risk Report &mdash; Bullhead City</h3>
<p><b>Incident:</b> Electrical Fire | <b>Date:</b> 2026-04-13</p>
<hr/>
<h4>Bow Tie Analysis</h4>
<p>Preventative Controls: MODERATE</p>
<p>Reactive Controls: LOW</p>
<p><small>Smoke Detector: LOW | Fire Alarm: LOW | Building Codes: MODERATE</small></p>
<hr/>
<h4>Failure Mode Analysis (Top 3)</h4>
<ul>
<li>Fire detection failure: RPN=240 (S=8 × O=6 × D=5)</li>
<li>Weather-accelerated spread: RPN=240 (S=8 × O=5 × D=6)</li>
<li>Suppression system failure: RPN=216 (S=9 × O=6 × D=4)</li>
</ul>
<hr/>
<h4>Investment Decision (Simulated)</h4>
<p><em>SIMULATED — for demonstration purposes</em></p>
<p>Recommendation: <b>INVEST</b></p>
<p>Expected Annual Savings: $34,963</p>
<p><small>Investment: $50,000 | P(fire) without: 20.0% | P(fire) with: 9.0%</small></p>
<hr/>
<h4>Risk Classification</h4>
<p>Current State: <b>HIGH</b> (score: 10/16)</p>
<p><small>Factors: Moderate response time (8.3 min); No suppression system present; Smoke alarm present but did not operate; Moderate property loss ($136,699)</small></p>
<hr/>
<p><small><em>Generated by Project Crucible | ISO 31010 Risk Assessment</em></small></p>
]]></description><Point><coordinates>-114.563925,35.161939,0</coordinates></Point></Placemark><Placemark><name>Cooking Fire - Yuma - 2026-04-09</name><description><![CDATA[
<h3>Fire Risk Report &mdash; Yuma</h3>
<p><b>Incident:</b> Cooking Fire | <b>Date:</b> 2026-04-09</p>
<hr/>
<h4>Bow Tie Analysis</h4>
<p>Preventative Controls: MODERATE</p>
<p>Reactive Controls: HIGH</p>
<p><small>Smoke Detector: NONE | Fire Alarm: NONE | Building Codes: HIGH</small></p>
<hr/>
<h4>Failure Mode Analysis (Top 3)</h4>
<ul>
<li>Fire detection failure: RPN=280 (S=8 × O=7 × D=5)</li>
<li>Weather-accelerated spread: RPN=240 (S=8 × O=5 × D=6)</li>
<li>Electrical ignition source: RPN=160 (S=8 × O=4 × D=5)</li>
</ul>
<hr/>
<h4>Investment Decision (Simulated)</h4>
<p><em>SIMULATED — for demonstration purposes</em></p>
<p>Recommendation: <b>INVEST</b></p>
<p>Expected Annual Savings: $17,428</p>
<p><small>Investment: $30,000 | P(fire) without: 20.0% | P(fire) with: 9.0%</small></p>
<hr/>
<h4>Risk Classification</h4>
<p>Current State: <b>MODERATE</b> (score: 8/16)</p>
<p><small>Factors: Slow response time (16.5 min); No smoke alarm present; Moderate property loss ($114,292)</small></p>
<hr/>
<p><small><em>Generated by Project Crucible | ISO 31010 Risk Assessment</em></small></p>
]]></description><Point><coordinates>-114.583464,32.736335,0</coordinates></Point></Placemark><Placemark><name>Cooking Fire - Phoenix - Ahwatukee - 2026-04-05</name><description><![CDATA[
<h3>Fire Risk Report &mdash; Phoenix - Ahwatukee</h3>
<p><b>Incident:</b> Cooking Fire | <b>Date:</b> 2026-04-05</p>
<hr/>
<h4>Bow Tie Analysis</h4>
<p>Preventative Controls: HIGH</p>
<p>Reactive Controls: MODERATE</p>
<p><small>Smoke Detector: HIGH | Fire Alarm: LOW | Building Codes: MODERATE</small></p>
<hr/>
<h4>Failure Mode Analysis (Top 3)</h4>
<ul>
<li>Suppression system failure: RPN=216 (S=9 × O=6 × D=4)</li>
<li>Electrical ignition source: RPN=160 (S=8 × O=4 × D=5)</li>
<li>Delayed emergency response: RPN=147 (S=7 × O=7 × D=3)</li>
</ul>
<hr/>
<h4>Investment Decision (Simulated)</h4>
<p><em>SIMULATED — for demonstration purposes</em></p>
<p>Recommendation: <b>INVEST</b></p>
<p>Expected Annual Savings: $19,878</p>
<p><small>Investment: $30,000 | P(fire) without: 25.0% | P(fire) with: 11.2%</small></p>
<hr/>
<h4>Risk Classification</h4>
<p>Current State: <b>MODERATE</b> (score: 7/16)</p>
<p><small>Factors: Slow response time (15.4 min); No suppression system present</small></p>
<hr/>
<p><small><em>Generated by Project Crucible | ISO 31010 Risk Assessment</em></small></p>
]]></description><Point><coordinates>-111.941076,33.358718,0</coordinates></Point></Placemark><Placemark><name>Wildfire - Phoenix - 2026-04-18</name><description><![CDATA[
<h3>Fire Risk Report &mdash; Phoenix</h3>
<p><b>Incident:</b> Wildfire | <b>Date:</b> 2026-04-18</p>
<hr/>
<h4>Bow Tie Analysis</h4>
<p>Preventative Controls: HIGH</p>
<p>Reactive Controls: HIGH</p>
<p><small>Smoke Detector: NONE | Fire Alarm: HIGH | Building Codes: HIGH</small></p>
<hr/>
<h4>Failure Mode Analysis (Top 3)</h4>
<ul>
<li>Fire detection failure: RPN=280 (S=8 × O=7 × D=5)</li>
<li>Weather-accelerated spread: RPN=240 (S=8 × O=5 × D=6)</li>
<li>Electrical ignition source: RPN=160 (S=8 × O=4 × D=5)</li>
</ul>
<hr/>
<h4>Investment Decision (Simulated)</h4>
<p><em>SIMULATED — for demonstration purposes</em></p>
<p>Recommendation: <b>DO NOT INVEST</b></p>
<p>Expected Annual Savings: $-39,077</p>
<p><small>Investment: $75,000 | P(fire) without: 15.0% | P(fire) with: 6.7%</small></p>
<hr/>
<h4>Risk Classification</h4>
<p>Current State: <b>MODERATE</b> (score: 9/16)</p>
<p><small>Factors: Moderate response time (8.5 min); No smoke alarm present; High property loss ($1,382,751)</small></p>
<hr/>
<p><small><em>Generated by Project Crucible | ISO 31010 Risk Assessment</em></small></p>
]]></description><Point><coordinates>-112.054025,33.477775,0</coordinates></Point></Placemark><Placemark><name>Electrical Fire - Lake Havasu City - 2026-04-08</name><description><![CDATA[
<h3>Fire Risk Report &mdash; Lake Havasu City</h3>
<p><b>Incident:</b> Electrical Fire | <b>Date:</b> 2026-04-08</p>
<hr/>
<h4>Bow Tie Analysis</h4>
<p>Preventative Controls: MODERATE</p>
<p>Reactive Controls: MODERATE</p>
<p><small>Smoke Detector: HIGH | Fire Alarm: NONE | Building Codes: MODERATE</small></p>
<hr/>
<h4>Failure Mode Analysis (Top 3)</h4>
<ul>
<li>Weather-accelerated spread: RPN=240 (S=8 × O=5 × D=6)</li>
<li>Suppression system failure: RPN=216 (S=9 × O=6 × D=4)</li>
<li>Electrical ignition source: RPN=160 (S=8 × O=4 × D=5)</li>
</ul>
<hr/>
<h4>Investment Decision (Simulated)</h4>
<p><em>SIMULATED — for demonstration purposes</em></p>
<p>Recommendation: <b>INVEST</b></p>
<p>Expected Annual Savings: $43,570</p>
<p><small>Investment: $50,000 | P(fire) without: 25.0% | P(fire) with: 11.2%</small></p>
<hr/>
<h4>Risk Classification</h4>
<p>Current State: <b>MODERATE</b> (score: 8/16)</p>
<p><small>Factors: Slow response time (12.4 min); No suppression system present</small></p>
<hr/>
<p><small><em>Generated by Project Crucible | ISO 31010 Risk Assessment</em></small></p>
]]></description><Point><coordinates>-114.339503,34.461391,0</coordinates></Point></Placemark><Placemark><name>Electrical Fire - Payson - 2026-05-01</name><description><![CDATA[
<h3>Fire Risk Report &mdash; Payson</h3>
<p><b>Incident:</b> Electrical Fire | <b>Date:</b> 2026-05-01</p>
<hr/>
<h4>Bow Tie Analysis</h4>
<p>Preventative Controls: MODERATE</p>
<p>Reactive Controls: MODERATE</p>
<p><small>Smoke Detector: HIGH | Fire Alarm: NONE | Building Codes: MODERATE</small></p>
<hr/>
<h4>Failure Mode Analysis (Top 3)</h4>
<ul>
<li>Weather-accelerated spread: RPN=384 (S=8 × O=8 × D=6)</li>
<li>Suppression system failure: RPN=216 (S=9 × O=6 × D=4)</li>
<li>Electrical ignition source: RPN=160 (S=8 × O=4 × D=5)</li>
</ul>
<hr/>
<h4>Investment Decision (Simulated)</h4>
<p><em>SIMULATED — for demonstration purposes</em></p>
<p>Recommendation: <b>INVEST</b></p>
<p>Expected Annual Savings: $48,257</p>
<p><small>Investment: $50,000 | P(fire) without: 25.0% | P(fire) with: 11.2%</small></p>
<hr/>
<h4>Risk Classification</h4>
<p>Current State: <b>HIGH</b> (score: 11/16)</p>
<p><small>Factors: Slow response time (15.9 min); No suppression system present; Fire spread beyond building; Extreme fire weather conditions</small></p>
<hr/>
<p><small><em>Generated by Project Crucible | ISO 31010 Risk Assessment</em></small></p>
]]></description><Point><coordinates>-111.307123,34.230038,0</coordinates></Point></Placemark><Placemark><name>Electrical Fire - Kingman - 2026-02-14</name><description><![CDATA[
<h3>Fire Risk Report &mdash; Kingman</h3>
<p><b>Incident:</b> Electrical Fire | <b>Date:</b> 2026-02-14</p>
<hr/>
<h4>Bow Tie Analysis</h4>
<p>Preventative Controls: MODERATE</p>
<p>Reactive Controls: MODERATE</p>
<p><small>Smoke Detector: LOW | Fire Alarm: NONE | Building Codes: MODERATE</small></p>
<hr/>
<h4>Failure Mode Analysis (Top 3)</h4>
<ul>
<li>Fire detection failure: RPN=240 (S=8 × O=6 × D=5)</li>
<li>Weather-accelerated spread: RPN=240 (S=8 × O=5 × D=6)</li>
<li>Suppression system failure: RPN=216 (S=9 × O=6 × D=4)</li>
</ul>
<hr/>
<h4>Investment Decision (Simulated)</h4>
<p><em>SIMULATED — for demonstration purposes</em></p>
<p>Recommendation: <b>INVEST</b></p>
<p>Expected Annual Savings: $30,341</p>
<p><small>Investment: $50,000 | P(fire) without: 25.0% | P(fire) with: 11.2%</small></p>
<hr/>
<h4>Risk Classification</h4>
<p>Current State: <b>HIGH</b> (score: 11/16)</p>
<p><small>Factors: Slow response time (16.4 min); No suppression system present; Smoke alarm present but did not operate; Moderate property loss ($142,977)</small></p>
<hr/>
<p><small><em>Generated by Project Crucible | ISO 31010 Risk Assessment</em></small></p>
]]></description><Point><coordinates>-114.030595,35.148886,0</coordinates></Point></Placemark><Placemark><name>Cooking Fire - Tucson - 2026-04-15</name><description><![CDATA[
<h3>Fire Risk Report &mdash; Tucson</h3>
<p><b>Incident:</b> Cooking Fire | <b>Date:</b> 2026-04-15</p>
<hr/>
<h4>Bow Tie Analysis</h4>
<p>Preventative Controls: MODERATE</p>
<p>Reactive Controls: MODERATE</p>
<p><small>Smoke Detector: LOW | Fire Alarm: NONE | Building Codes: MODERATE</small></p>
<hr/>
<h4>Failure Mode Analysis (Top 3)</h4>
<ul>
<li>Electrical ignition source: RPN=280 (S=8 × O=7 × D=5)</li>
<li>Fire detection failure: RPN=240 (S=8 × O=6 × D=5)</li>
<li>Weather-accelerated spread: RPN=240 (S=8 × O=5 × D=6)</li>
</ul>
<hr/>
<h4>Investment Decision (Simulated)</h4>
<p><em>SIMULATED — for demonstration purposes</em></p>
<p>Recommendation: <b>INVEST</b></p>
<p>Expected Annual Savings: $20,942</p>
<p><small>Investment: $30,000 | P(fire) without: 20.0% | P(fire) with: 9.0%</small></p>
<hr/>
<h4>Risk Classification</h4>
<p>Current State: <b>MODERATE</b> (score: 9/16)</p>
<p><small>Factors: Moderate response time (7.8 min); No suppression system present; Smoke alarm present but did not operate</small></p>
<hr/>
<p><small><em>Generated by Project Crucible | ISO 31010 Risk Assessment</em></small></p>
]]></description><Point><coordinates>-111.001086,32.179483,0</coordinates></Point></Placemark><Placemark><name>Brush Fire - Lake Havasu City - 2026-03-20</name><description><![CDATA[
<h3>Fire Risk Report &mdash; Lake Havasu City</h3>
<p><b>Incident:</b> Brush Fire | <b>Date:</b> 2026-03-20</p>
<hr/>
<h4>Bow Tie Analysis</h4>
<p>Preventative Controls: HIGH</p>
<p>Reactive Controls: MODERATE</p>
<p><small>Smoke Detector: HIGH | Fire Alarm: HIGH | Building Codes: HIGH</small></p>
<hr/>
<h4>Failure Mode Analysis (Top 3)</h4>
<ul>
<li>Electrical ignition source: RPN=160 (S=8 × O=4 × D=5)</li>
<li>Weather-accelerated spread: RPN=144 (S=8 × O=3 × D=6)</li>
<li>Delayed emergency response: RPN=105 (S=7 × O=5 × D=3)</li>
</ul>
<hr/>
<h4>Investment Decision (Simulated)</h4>
<p><em>SIMULATED — for demonstration purposes</em></p>
<p>Recommendation: <b>INVEST</b></p>
<p>Expected Annual Savings: $15,429</p>
<p><small>Investment: $30,000 | P(fire) without: 20.0% | P(fire) with: 9.0%</small></p>
<hr/>
<h4>Risk Classification</h4>
<p>Current State: <b>MODERATE</b> (score: 6/16)</p>
<p><small>Factors: Slow response time (10.2 min); Moderate property loss ($132,465)</small></p>
<hr/>
<p><small><em>Generated by Project Crucible | ISO 31010 Risk Assessment</em></small></p>
]]></description><Point><coordinates>-114.306664,34.445561,0</coordinates></Point></Placemark><Placemark><name>Electrical Fire - Prescott - 2026-02-27</name><description><![CDATA[
<h3>Fire Risk Report &mdash; Prescott</h3>
<p><b>Incident:</b> Electrical Fire | <b>Date:</b> 2026-02-27</p>
<hr/>
<h4>Bow Tie Analysis</h4>
<p>Preventative Controls: MODERATE</p>
<p>Reactive Controls: HIGH</p>
<p><small>Smoke Detector: NONE | Fire Alarm: NONE | Building Codes: HIGH</small></p>
<hr/>
<h4>Failure Mode Analysis (Top 3)</h4>
<ul>
<li>Fire detection failure: RPN=280 (S=8 × O=7 × D=5)</li>
<li>Weather-accelerated spread: RPN=240 (S=8 × O=5 × D=6)</li>
<li>Electrical ignition source: RPN=160 (S=8 × O=4 × D=5)</li>
</ul>
<hr/>
<h4>Investment Decision (Simulated)</h4>
<p><em>SIMULATED — for demonstration purposes</em></p>
<p>Recommendation: <b>INVEST</b></p>
<p>Expected Annual Savings: $47,510</p>
<p><small>Investment: $50,000 | P(fire) without: 12.0% | P(fire) with: 5.4%</small></p>
<hr/>
<h4>Risk Classification</h4>
<p>Current State: <b>MODERATE</b> (score: 6/16)</p>
<p><small>Factors: No smoke alarm present</small></p>
<hr/>
<p><small><em>Generated by Project Crucible | ISO 31010 Risk Assessment</em></small></p>
]]></description><Point><coordinates>-112.426025,34.588891,0</coordinates></Point></Placemark><Placemark><name>Structure Fire - Chandler - 2026-02-15</name><description><![CDATA[
<h3>Fire Risk Report &mdash; Chandler</h3>
<p><b>Incident:</b> Structure Fire | <b>Date:</b> 2026-02-15</p>
<hr/>
<h4>Bow Tie Analysis</h4>
<p>Preventative Controls: MODERATE</p>
<p>Reactive Controls: MODERATE</p>
<p><small>Smoke Detector: HIGH | Fire Alarm: NONE | Building Codes: LOW</small></p>
<hr/>
<h4>Failure Mode Analysis (Top 3)</h4>
<ul>
<li>Suppression system failure: RPN=288 (S=9 × O=8 × D=4)</li>
<li>Electrical ignition source: RPN=160 (S=8 × O=4 × D=5)</li>
<li>Weather-accelerated spread: RPN=144 (S=8 × O=3 × D=6)</li>
</ul>
<hr/>
<h4>Investment Decision (Simulated)</h4>
<p><em>SIMULATED — for demonstration purposes</em></p>
<p>Recommendation: <b>INVEST</b></p>
<p>Expected Annual Savings: $39,918</p>
<p><small>Investment: $50,000 | P(fire) without: 20.0% | P(fire) with: 9.0%</small></p>
<hr/>
<h4>Risk Classification</h4>
<p>Current State: <b>MODERATE</b> (score: 8/16)</p>
<p><small>Factors: Slow response time (12.0 min); Suppression system failed</small></p>
<hr/>
<p><small><em>Generated by Project Crucible | ISO 31010 Risk Assessment</em></small></p>
]]></description><Point><coordinates>-111.843509,33.353968,0</coordinates></Point></Placemark><Placemark><name>Structure Fire - Bullhead City - 2026-04-11</name><description><![CDATA[
<h3>Fire Risk Report &mdash; Bullhead City</h3>
<p><b>Incident:</b> Structure Fire | <b>Date:</b> 2026-04-11</p>
<hr/>
<h4>Bow Tie Analysis</h4>
<p>Preventative Controls: MODERATE</p>
<p>Reactive Controls: HIGH</p>
<p><small>Smoke Detector: LOW | Fire Alarm: NONE | Building Codes: HIGH</small></p>
<hr/>
<h4>Failure Mode Analysis (Top 3)</h4>
<ul>
<li>Fire detection failure: RPN=240 (S=8 × O=6 × D=5)</li>
<li>Weather-accelerated spread: RPN=240 (S=8 × O=5 × D=6)</li>
<li>Electrical ignition source: RPN=160 (S=8 × O=4 × D=5)</li>
</ul>
<hr/>
<h4>Investment Decision (Simulated)</h4>
<p><em>SIMULATED — for demonstration purposes</em></p>
<p>Recommendation: <b>INVEST</b></p>
<p>Expected Annual Savings: $46,700</p>
<p><small>Investment: $50,000 | P(fire) without: 20.0% | P(fire) with: 9.0%</small></p>
<hr/>
<h4>Risk Classification</h4>
<p>Current State: <b>MODERATE</b> (score: 6/16)</p>
<p><small>Factors: Slow response time (13.6 min); Smoke alarm present but did not operate</small></p>
<hr/>
<p><small><em>Generated by Project Crucible | ISO 31010 Risk Assessment</em></small></p>
]]></description><Point><coordinates>-114.581194,35.111642,0</coordinates></Point></Placemark><Placemark><name>Structure Fire - Bullhead City - 2026-05-01</name><description><![CDATA[
<h3>Fire Risk Report &mdash; Bullhead City</h3>
<p><b>Incident:</b> Structure Fire | <b>Date:</b> 2026-05-01</p>
<hr/>
<h4>Bow Tie Analysis</h4>
<p>Preventative Controls: LOW</p>
<p>Reactive Controls: MODERATE</p>
<p><small>Smoke Detector: NONE | Fire Alarm: NONE | Building Codes: MODERATE</small></p>
<hr/>
<h4>Failure Mode Analysis (Top 3)</h4>
<ul>
<li>Fire detection failure: RPN=280 (S=8 × O=7 × D=5)</li>
<li>Weather-accelerated spread: RPN=240 (S=8 × O=5 × D=6)</li>
<li>Suppression system failure: RPN=216 (S=9 × O=6 × D=4)</li>
</ul>
<hr/>
<h4>Investment Decision (Simulated)</h4>
<p><em>SIMULATED — for demonstration purposes</em></p>
<p>Recommendation: <b>INVEST</b></p>
<p>Expected Annual Savings: $2,986</p>
<p><small>Investment: $50,000 | P(fire) without: 25.0% | P(fire) with: 11.2%</small></p>
<hr/>
<h4>Risk Classification</h4>
<p>Current State: <b>HIGH</b> (score: 11/16)</p>
<p><small>Factors: Slow response time (11.5 min); No suppression system present; No smoke alarm present; Moderate property loss ($341,923); Hot/dry conditions</small></p>
<hr/>
<p><small><em>Generated by Project Crucible | ISO 31010 Risk Assessment</em></small></p>
]]></description><Point><coordinates>-114.601511,35.099207,0</coordinates></Point></Placemark><Placemark><name>Cooking Fire - Scottsdale - 2026-03-15</name><description><![CDATA[
<h3>Fire Risk Report &mdash; Scottsdale</h3>
<p><b>Incident:</b> Cooking Fire | <b>Date:</b> 2026-03-15</p>
<hr/>
<h4>Bow Tie Analysis</h4>
<p>Preventative Controls: HIGH</p>
<p>Reactive Controls: HIGH</p>
<p><small>Smoke Detector: HIGH | Fire Alarm: HIGH | Building Codes: LOW</small></p>
<hr/>
<h4>Failure Mode Analysis (Top 3)</h4>
<ul>
<li>Suppression system failure: RPN=288 (S=9 × O=8 × D=4)</li>
<li>Weather-accelerated spread: RPN=240 (S=8 × O=5 × D=6)</li>
<li>Electrical ignition source: RPN=160 (S=8 × O=4 × D=5)</li>
</ul>
<hr/>
<h4>Investment Decision (Simulated)</h4>
<p><em>SIMULATED — for demonstration purposes</em></p>
<p>Recommendation: <b>INVEST</b></p>
<p>Expected Annual Savings: $24,536</p>
<p><small>Investment: $30,000 | P(fire) without: 12.0% | P(fire) with: 5.4%</small></p>
<hr/>
<h4>Risk Classification</h4>
<p>Current State: <b>MODERATE</b> (score: 7/16)</p>
<p><small>Factors: Suppression system failed</small></p>
<hr/>
<p><small><em>Generated by Project Crucible | ISO 31010 Risk Assessment</em></small></p>
]]></description><Point><coordinates>-111.881317,33.527966,0</coordinates></Point></Placemark><Placemark><name>Vehicle Fire - Bullhead City - 2026-04-18</name><description><![CDATA[
<h3>Fire Risk Report &mdash; Bullhead City</h3>
<p><b>Incident:</b> Vehicle Fire | <b>Date:</b> 2026-04-18</p>
<hr/>
<h4>Bow Tie Analysis</h4>
<p>Preventative Controls: HIGH</p>
<p>Reactive Controls: HIGH</p>
<p><small>Smoke Detector: HIGH | Fire Alarm: NONE | Building Codes: HIGH</small></p>
<hr/>
<h4>Failure Mode Analysis (Top 3)</h4>
<ul>
<li>Weather-accelerated spread: RPN=240 (S=8 × O=5 × D=6)</li>
<li>Electrical ignition source: RPN=160 (S=8 × O=4 × D=5)</li>
<li>Delayed emergency response: RPN=147 (S=7 × O=7 × D=3)</li>
</ul>
<hr/>
<h4>Investment Decision (Simulated)</h4>
<p><em>SIMULATED — for demonstration purposes</em></p>
<p>Recommendation: <b>INVEST</b></p>
<p>Expected Annual Savings: $21,676</p>
<p><small>Investment: $30,000 | P(fire) without: 20.0% | P(fire) with: 9.0%</small></p>
<hr/>
<h4>Risk Classification</h4>
<p>Current State: <b>LOW</b> (score: 5/16)</p>
<p><small>Factors: Slow response time (15.2 min)</small></p>
<hr/>
<p><small><em>Generated by Project Crucible | ISO 31010 Risk Assessment</em></small></p>
]]></description><Point><coordinates>-114.53795,35.12274,0</coordinates></Point></Placemark><Placemark><name>Wildfire - Payson - 2026-03-10</name><description><![CDATA[
<h3>Fire Risk Report &mdash; Payson</h3>
<p><b>Incident:</b> Wildfire | <b>Date:</b> 2026-03-10</p>
<hr/>
<h4>Bow Tie Analysis</h4>
<p>Preventative Controls: MODERATE</p>
<p>Reactive Controls: MODERATE</p>
<p><small>Smoke Detector: NONE | Fire Alarm: HIGH | Building Codes: UNDETERMINED</small></p>
<hr/>
<h4>Failure Mode Analysis (Top 3)</h4>
<ul>
<li>Fire detection failure: RPN=280 (S=8 × O=7 × D=5)</li>
<li>Weather-accelerated spread: RPN=240 (S=8 × O=5 × D=6)</li>
<li>Suppression system failure: RPN=180 (S=9 × O=5 × D=4)</li>
</ul>
<hr/>
<h4>Investment Decision (Simulated)</h4>
<p><em>SIMULATED — for demonstration purposes</em></p>
<p>Recommendation: <b>INVEST</b></p>
<p>Expected Annual Savings: $46,473</p>
<p><small>Investment: $75,000 | P(fire) without: 15.0% | P(fire) with: 6.7%</small></p>
<hr/>
<h4>Risk Classification</h4>
<p>Current State: <b>MODERATE</b> (score: 8/16)</p>
<p><small>Factors: Moderate response time (9.0 min); No smoke alarm present; Moderate property loss ($345,787)</small></p>
<hr/>
<p><small><em>Generated by Project Crucible | ISO 31010 Risk Assessment</em></small></p>
]]></description><Point><coordinates>-111.33961,34.248477,0</coordinates></Point></Placemark><Placemark><name>Vehicle Fire - Gilbert - 2026-04-18</name><description><![CDATA[
<h3>Fire Risk Report &mdash; Gilbert</h3>
<p><b>Incident:</b> Vehicle Fire | <b>Date:</b> 2026-04-18</p>
<hr/>
<h4>Bow Tie Analysis</h4>
<p>Preventative Controls: MODERATE</p>
<p>Reactive Controls: HIGH</p>
<p><small>Smoke Detector: LOW | Fire Alarm: HIGH | Building Codes: UNDETERMINED</small></p>
<hr/>
<h4>Failure Mode Analysis (Top 3)</h4>
<ul>
<li>Fire detection failure: RPN=240 (S=8 × O=6 × D=5)</li>
<li>Weather-accelerated spread: RPN=240 (S=8 × O=5 × D=6)</li>
<li>Suppression system failure: RPN=180 (S=9 × O=5 × D=4)</li>
</ul>
<hr/>
<h4>Investment Decision (Simulated)</h4>
<p><em>SIMULATED — for demonstration purposes</em></p>
<p>Recommendation: <b>INVEST</b></p>
<p>Expected Annual Savings: $24,311</p>
<p><small>Investment: $30,000 | P(fire) without: 15.0% | P(fire) with: 6.7%</small></p>
<hr/>
<h4>Risk Classification</h4>
<p>Current State: <b>MODERATE</b> (score: 7/16)</p>
<p><small>Factors: Smoke alarm present but did not operate</small></p>
<hr/>
<p><small><em>Generated by Project Crucible | ISO 31010 Risk Assessment</em></small></p>
]]></description><Point><coordinates>-111.805038,33.396204,0</coordinates></Point></Placemark></Folder></Document></kml>